satname,norad_id,inclination_deg,eccentricity,mean_motion_rev_per_day,perigee_km,apogee_km,l1,l2
STARLINK-1184,45098,53.0559,0.0005534,15.09399077,534.2076321196009,541.8624513353852,1 45098U 20006BG  26043.84206460  .00024114  00000+0  15044-2 0  9996,2 45098  53.0559 357.5529 0005534  68.2203 291.9376 15.09399077333285
STARLINK-1193,45100,53.0554,0.0005208,15.47846064,419.48624586947517,426.57033963840786,1 45100U 20006BJ  26043.84420775  .00093115  00000+0  17487-2 0  9997,2 45100  53.0554 349.8464 0005208 110.7231 249.4334 15.47846064333397
STARLINK-1143,45179,53.0477,0.0004467,15.56847689,393.7605796478156,399.81329669417755,1 45179U 20012B   26043.50658287  .00034839  00000+0  48121-3 0  9992,2 45179  53.0477  92.4713 0004467 343.3364  16.7499 15.56847689331997
STARLINK-1202,45183,53.1588,0.0001363,15.30187377,474.31864265686545,476.18687670535473,1 45183U 20012F   26043.73826870 -.00001521  00000+0 -39260-4 0  9996,2 45183  53.1588 155.1466 0001363  92.0834 268.0323 15.30187377331137
STARLINK-1216,45185,53.1605,0.0001267,15.30192,474.37063334774575,476.1072788150177,1 45185U 20012H   26043.59815482  .00000460  00000+0  27657-4 0  9995,2 45185  53.1605 155.7765 0001267 100.7073 259.4070 15.30192000331055
STARLINK-1225,45187,53.1603,0.0001077,15.3018644,474.51744705567216,475.9936678125432,1 45187U 20012K   26043.59504839 -.00006063  00000+0 -19283-3 0  9990,2 45187  53.1603 156.2317 0001077  83.6567 276.4556 15.30186440331093
STARLINK-1230,45189,53.1594,0.0001607,15.30155861,474.24550882835865,476.4482185421466,1 45189U 20012M   26043.73520982  .00024143  00000+0  82573-3 0  9994,2 45189  53.1594 155.6398 0001607 102.2078 257.9103 15.30155861328349
STARLINK-1234,45190,53.0469,0.0006924,15.56333547,393.5869506466206,402.9709314417787,1 45190U 20012N   26043.39645874  .00066863  00000+0  93073-3 0  9998,2 45190  53.0469  88.3609 0006924 249.6394 110.3873 15.56333547331934
STARLINK-1269,45197,53.1605,0.0001327,15.30194503,474.3220405219872,476.1409245172472,1 45197U 20012V   26043.66668777  .00001375  00000+0  58543-4 0  9993,2 45197  53.1605 155.8173 0001327  99.6359 260.4792 15.30194503331088
STARLINK-1154,45198,53.0503,0.0005772,15.4235031,435.23985336615624,443.10975811470325,1 45198U 20012W   26043.63449201  .00020679  00000+0  48008-3 0  9992,2 45198  53.0503 129.1412 0005772 352.8993   7.1929 15.42350310331420
STARLINK-1199,45201,53.0558,0.0001685,15.06533044,545.6369747192839,547.9706797780673,1 45201U 20012Z   26043.52249293  .00018672  00000+0  12645-2 0  9991,2 45201  53.0558 139.6000 0001685 107.0987 253.0187 15.06533044331320
STARLINK-1209,45206,53.0482,0.0008088,15.46446934,421.6257584243649,432.63395809428494,1 45206U 20012AE  26043.57010432  .00070505  00000+0  13949-2 0  9993,2 45206  53.0482  93.7334 0008088 216.2709 143.7750 15.46446934331023
STARLINK-1210,45207,53.0102,0.000649,15.96831358,278.8931567739628,287.53959345486055,1 45207U 20012AF  26043.91670139  .00422077  84032-4  96493-3 0  9991,2 45207  53.0102  27.5204 0006490  71.4265  36.1015 15.96831358  6006
STARLINK-1231,45212,53.0459,0.000271,15.18936156,507.1881113005047,510.92096911529734,1 45212U 20012AL  26043.62703138  .00029391  00000+0  13992-2 0  9993,2 45212  53.0459 130.6902 0002710 344.2312  15.8598 15.18936156331415
STARLINK-1271,45217,53.0564,0.0001337,15.06387176,546.324937572972,548.1767862872521,1 45217U 20012AR  26043.64056559  .00000262  00000+0  36519-4 0  9996,2 45217  53.0564 139.0721 0001337  98.5240 261.5901 15.06387176331341
STARLINK-1191,45222,53.1609,0.0001469,15.31027648,471.738580425349,473.7513695496,1 45222U 20012AW  26043.46480512 -.00000228  00000+0  44146-5 0  9991,2 45222  53.1609 116.0696 0001469  92.1254 267.9915 15.31027648331657
STARLINK-1212,45223,53.0526,0.0004112,15.438041,432.0927373174136,437.69577422215843,1 45223U 20012AX  26043.67181479  .00068726  00000+0  14897-2 0  9998,2 45223  53.0526 109.7675 0004112  14.6525 345.4599 15.43804100331760
STARLINK-1215,45225,53.1597,0.0001411,15.30193126,474.2685831480949,476.20260489412703,1 45225U 20012AZ  26043.57482534  .00000831  00000+0  40184-4 0  9998,2 45225  53.1597 114.9624 0001411  80.2381 279.8779 15.30193126331632
STARLINK-1221,45227,53.0671,0.0002019,15.40958164,441.9029142158852,444.6574024644233,1 45227U 20012BB  26043.36531321  .00021110  00000+0  51320-3 0  9992,2 45227  53.0671  29.5260 0002019 335.0743  25.0163 15.40958164332801
STARLINK-1222,45228,53.0569,0.0002697,15.47523246,422.1395595259255,425.8086182472707,1 45228U 20012BC  26043.38761292  .00060245  00000+0  11523-2 0  9999,2 45228  53.0569 103.9667 0002697  25.4909 334.6231 15.47523246331701
STARLINK-1226,45229,53.16,0.0001263,15.31046205,471.82435819967395,473.5548770032801,1 45229U 20012BD  26043.48142243  .00004489  00000+0  15947-3 0  9993,2 45229  53.1600 115.7908 0001263  95.0866 265.0279 15.31046205331551
STARLINK-1227,45230,53.1606,0.0001338,15.3102954,471.82268365807613,473.65597816422815,1 45230U 20012BE  26043.57436445  .00000510  00000+0  28694-4 0  9990,2 45230  53.1606 115.6759 0001338  83.8044 276.3109 15.31029540331682
STARLINK-1246,45235,53.157,0.0001499,15.30196619,474.19784550602344,476.2524834829401,1 45235U 20012BK  26043.48016631  .00001765  00000+0  71730-4 0  9998,2 45235  53.1570 156.3463 0001499  72.1553 287.9611 15.30196619331110
STARLINK-1270,45237,53.0521,0.0003981,15.428143,435.09447212321174,440.52132745242307,1 45237U 20012BM  26043.60898211  .00064715  00000+0  14515-2 0  9996,2 45237  53.0521 106.9597 0003981 335.6439  24.4377 15.42814300331798
STARLINK-1279,45360,53.0466,0.0006774,15.52328622,405.3308934786228,414.5273654708353,1 45360U 20019A   26043.69310832  .00098031  00000+0  15695-2 0  9995,2 45360  53.0466 219.5255 0006774 135.6133 224.5419 15.52328622326788
STARLINK-1301,45361,53.0449,0.0008169,15.59111366,384.698589194767,395.75674338655244,1 45361U 20019B   26043.91670139  .00226085  00000+0  27651-2 0  9997,2 45361  53.0449 225.1294 0008169 131.3412 326.5662 15.59111366  5913
STARLINK-1262,45366,53.0548,0.0001451,15.06392334,546.2301817388861,548.2399247087305,1 45366U 20019G   26043.81196241  .00000447  00000+0  48939-4 0  9994,2 45366  53.0548 278.2965 0001451  98.0104 262.1050 15.06392334325982
STARLINK-1273,45367,53.0527,0.000221,15.41390849,440.4962840772596,443.5107861937895,1 45367U 20019H   26043.78904351  .00076154  00000+0  17871-2 0  9997,2 45367  53.0527 273.0087 0002210 123.1040 237.0177 15.41390849326059
STARLINK-1276,45368,53.0545,0.0001647,15.06395364,546.0851593993448,548.366373894678,1 45368U 20019J   26043.80459392 -.00000100  00000+0  12220-4 0  9995,2 45368  53.0545 278.3278 0001647  89.7239 270.3939 15.06395364325985
STARLINK-1277,45369,53.0543,0.0001923,15.44244527,432.2888881657818,434.9086817486759,1 45369U 20019K   26043.81424967  .00018062  00000+0  39498-3 0  9997,2 45369  53.0543 271.3497 0001923  60.1706 299.9490 15.44244527326086
STARLINK-1281,45370,53.0541,0.0001776,15.06393275,546.0022236069344,548.4621147358248,1 45370U 20019L   26043.79353701  .00001405  00000+0  11324-3 0  9994,2 45370  53.0541 278.3775 0001776 109.1336 250.9846 15.06393275325984
STARLINK-1300,45374,53.054,0.0001408,15.06400509,546.234909069718,548.1850867843341,1 45374U 20019Q   26043.81564303 -.00002313  00000+0 -13640-3 0  9997,2 45374  53.0540 278.2810 0001408  89.9970 270.1180 15.06400509325981
STARLINK-1302,45375,53.0529,0.0002089,15.45347164,428.9358957656541,431.7804850562079,1 45375U 20019R   26043.78813878  .00084621  00000+0  17353-2 0  9992,2 45375  53.0529 270.9194 0002089 113.0853 247.0373 15.45347164326087
STARLINK-1304,45376,53.0528,0.0005273,15.43976628,430.79446523813203,437.9789527416315,1 45376U 20019S   26043.82099617  .00069651  00000+0  15004-2 0  9992,2 45376  53.0528 268.1064 0005273 139.4900 220.6499 15.43976628326127
STARLINK-1305,45377,53.0461,0.0006183,15.480943,418.09652049160377,426.5059424086148,1 45377U 20019T   26043.76376936  .00070468  00000+0  13176-2 0  9994,2 45377  53.0461 251.9575 0006183  96.8957 263.2754 15.48094300326355
STARLINK-1319,45379,53.0489,0.0006118,15.5397525,400.9830833449096,409.28309262456787,1 45379U 20019V   26043.78830301  .00092668  00000+0  13995-2 0  9994,2 45379  53.0489 250.7342 0006118 109.2411 250.9261 15.53975250326374
STARLINK-1266,45383,53.0512,0.0001742,15.42004881,439.00512523656744,441.3806313661671,1 45383U 20019Z   26043.79453891  .00028909  00000+0  67468-3 0  9997,2 45383  53.0512 251.2547 0001742 132.8083 227.3068 15.42004881326356
STARLINK-1267,45384,53.0536,0.0008312,15.45409462,424.516145634263,435.83428386005835,1 45384U 20019AA  26043.81886457  .00055969  00000+0  11513-2 0  9994,2 45384  53.0536 245.8811 0008312 151.9866 208.1589 15.45409462326438
STARLINK-1272,45386,53.0469,0.0006925,15.51291113,408.25254920909356,417.6582121563388,1 45386U 20019AC  26043.77536213  .00097152  00000+0  16144-2 0  9998,2 45386  53.0469 230.0234 0006925 122.9871 237.1804 15.51291113326657
STARLINK-1274,45387,53.0299,0.0009435,15.4373392,428.672450125704,441.5290297409583,1 45387U 20019AD  26043.69400012  .00071087  00000+0  15418-2 0  9999,2 45387  53.0299 222.0988 0009435 148.3590 211.7984 15.43733920326751
STARLINK-1280,45388,53.0473,0.0006705,15.60117333,382.7816120200614,391.854086973236,1 45388U 20019AE  26043.77855883  .00125521  00000+0  14994-2 0  9990,2 45388  53.0473 244.4059 0006705 111.2773 248.8955 15.60117333326440
STARLINK-1283,45389,53.0463,0.0010789,15.51039905,406.3609217113117,421.01632303927363,1 45389U 20019AF  26043.91670139  .00151005  00000+0  25073-2 0  9992,2 45389  53.0463 229.5223 0010789 143.8716  11.1306 15.51039905  5849
STARLINK-1284,45390,53.0515,0.0002746,15.47336072,422.65461384916216,426.3906345147634,1 45390U 20019AG  26043.78039118  .00073105  00000+0  14033-2 0  9993,2 45390  53.0515 250.4154 0002746 149.6154 210.5012 15.47336072326361
